{"type":"FeatureCollection","features":[{"type":"Feature","properties":{"name":"Bronx","kind":"borough"},"geometry":{"type":"Point","coordinates":[-73.87834098602534,40.85608296063175]}},{"type":"Feature","properties":{"name":"Brooklyn","kind":"borough"},"geometry":{"type":"Point","coordinates":[-73.92934389929252,40.654357840767204]}},{"type":"Feature","properties":{"name":"Manhattan","kind":"borough"},"geometry":{"type":"Point","coordinates":[-73.96067619694179,40.78799263016552]}},{"type":"Feature","properties":{"name":"Queens","kind":"borough"},"geometry":{"type":"Point","coordinates":[-73.88909989573116,40.71016464040886]}},{"type":"Feature","properties":{"name":"Staten Island","kind":"borough"},"geometry":{"type":"Point","coordinates":[-74.15685766716473,40.572337090035944]}}]}