{"type":"FeatureCollection","features":[{"type":"Feature","properties":{"name":"Greenpoint","nta_id":"BK0101","kind":"nta","borough_name":"Brooklyn"},"geometry":{"type":"Point","coordinates":[-73.9486344990099,40.72890626543243]}},{"type":"Feature","properties":{"name":"Williamsburg","nta_id":"BK0102","kind":"nta","borough_name":"Brooklyn"},"geometry":{"type":"Point","coordinates":[-73.96014340023402,40.71505236468347]}},{"type":"Feature","properties":{"name":"South Williamsburg","nta_id":"BK0103","kind":"nta","borough_name":"Brooklyn"},"geometry":{"type":"Point","coordinates":[-73.9550331623544,40.70249047192445]}},{"type":"Feature","properties":{"name":"East Williamsburg","nta_id":"BK0104","kind":"nta","borough_name":"Brooklyn"},"geometry":{"type":"Point","coordinates":[-73.9422534848396,40.71449628375344]}},{"type":"Feature","properties":{"name":"Brooklyn Heights","nta_id":"BK0201","kind":"nta","borough_name":"Brooklyn"},"geometry":{"type":"Point","coordinates":[-73.99552592891919,40.695213380269244]}},{"type":"Feature","properties":{"name":"Downtown Brooklyn-DUMBO-Boerum Hill","nta_id":"BK0202","kind":"nta","borough_name":"Brooklyn"},"geometry":{"type":"Point","coordinates":[-73.98518327160821,40.69426915357935]}},{"type":"Feature","properties":{"name":"Fort Greene","nta_id":"BK0203","kind":"nta","borough_name":"Brooklyn"},"geometry":{"type":"Point","coordinates":[-73.97553116032245,40.69062038075317]}},{"type":"Feature","properties":{"name":"Clinton Hill","nta_id":"BK0204","kind":"nta","borough_name":"Brooklyn"},"geometry":{"type":"Point","coordinates":[-73.9644919220319,40.68624278801473]}},{"type":"Feature","properties":{"name":"Brooklyn Navy Yard","nta_id":"BK0261","kind":"nta","borough_name":"Brooklyn"},"geometry":{"type":"Point","coordinates":[-73.96886361639021,40.70339189274017]}},{"type":"Feature","properties":{"name":"Bedford-Stuyvesant (West)","nta_id":"BK0301","kind":"nta","borough_name":"Brooklyn"},"geometry":{"type":"Point","coordinates":[-73.95061877852481,40.686682151716894]}},{"type":"Feature","properties":{"name":"Bedford-Stuyvesant (East)","nta_id":"BK0302","kind":"nta","borough_name":"Brooklyn"},"geometry":{"type":"Point","coordinates":[-73.93640225722021,40.69381888577625]}},{"type":"Feature","properties":{"name":"Bushwick (West)","nta_id":"BK0401","kind":"nta","borough_name":"Brooklyn"},"geometry":{"type":"Point","coordinates":[-73.9260870640297,40.701105911607044]}},{"type":"Feature","properties":{"name":"Bushwick (East)","nta_id":"BK0402","kind":"nta","borough_name":"Brooklyn"},"geometry":{"type":"Point","coordinates":[-73.91274570293025,40.689662899515355]}},{"type":"Feature","properties":{"name":"The Evergreens Cemetery","nta_id":"BK0471","kind":"nta","borough_name":"Brooklyn"},"geometry":{"type":"Point","coordinates":[-73.90198898126467,40.685151509744145]}},{"type":"Feature","properties":{"name":"Cypress Hills","nta_id":"BK0501","kind":"nta","borough_name":"Brooklyn"},"geometry":{"type":"Point","coordinates":[-73.87642867179522,40.68333930324701]}},{"type":"Feature","properties":{"name":"East New York (North)","nta_id":"BK0502","kind":"nta","borough_name":"Brooklyn"},"geometry":{"type":"Point","coordinates":[-73.88884551559165,40.67318454068205]}},{"type":"Feature","properties":{"name":"East New York-New Lots","nta_id":"BK0503","kind":"nta","borough_name":"Brooklyn"},"geometry":{"type":"Point","coordinates":[-73.8857200797248,40.65876555236861]}},{"type":"Feature","properties":{"name":"Spring Creek-Starrett City","nta_id":"BK0504","kind":"nta","borough_name":"Brooklyn"},"geometry":{"type":"Point","coordinates":[-73.88359185719173,40.64968668319317]}},{"type":"Feature","properties":{"name":"East New York-City Line","nta_id":"BK0505","kind":"nta","borough_name":"Brooklyn"},"geometry":{"type":"Point","coordinates":[-73.8640916460729,40.666657379998796]}},{"type":"Feature","properties":{"name":"Highland Park-Cypress Hills Cemeteries (South)","nta_id":"BK0571","kind":"nta","borough_name":"Brooklyn"},"geometry":{"type":"Point","coordinates":[-73.8786098001992,40.68889224282489]}},{"type":"Feature","properties":{"name":"Carroll Gardens-Cobble Hill-Gowanus-Red Hook","nta_id":"BK0601","kind":"nta","borough_name":"Brooklyn"},"geometry":{"type":"Point","coordinates":[-74.00027760323891,40.67876121237471]}},{"type":"Feature","properties":{"name":"Park Slope","nta_id":"BK0602","kind":"nta","borough_name":"Brooklyn"},"geometry":{"type":"Point","coordinates":[-73.97764403616551,40.6731079175306]}},{"type":"Feature","properties":{"name":"Windsor Terrace-South Slope","nta_id":"BK0701","kind":"nta","borough_name":"Brooklyn"},"geometry":{"type":"Point","coordinates":[-73.97907903996034,40.65671700117288]}},{"type":"Feature","properties":{"name":"Sunset Park (West)","nta_id":"BK0702","kind":"nta","borough_name":"Brooklyn"},"geometry":{"type":"Point","coordinates":[-74.00876316433394,40.65499862262939]}},{"type":"Feature","properties":{"name":"Sunset Park (Central)","nta_id":"BK0703","kind":"nta","borough_name":"Brooklyn"},"geometry":{"type":"Point","coordinates":[-74.00542447585477,40.64458899174569]}},{"type":"Feature","properties":{"name":"Green-Wood Cemetery","nta_id":"BK0771","kind":"nta","borough_name":"Brooklyn"},"geometry":{"type":"Point","coordinates":[-73.99054464877682,40.65161910221644]}},{"type":"Feature","properties":{"name":"Prospect Heights","nta_id":"BK0801","kind":"nta","borough_name":"Brooklyn"},"geometry":{"type":"Point","coordinates":[-73.96829155239597,40.67722948747285]}},{"type":"Feature","properties":{"name":"Crown Heights (North)","nta_id":"BK0802","kind":"nta","borough_name":"Brooklyn"},"geometry":{"type":"Point","coordinates":[-73.94144487388382,40.673110528064484]}},{"type":"Feature","properties":{"name":"Lincoln Terrace Park","nta_id":"BK0891","kind":"nta","borough_name":"Brooklyn"},"geometry":{"type":"Point","coordinates":[-73.92650319675283,40.6670435224308]}},{"type":"Feature","properties":{"name":"Crown Heights (South)","nta_id":"BK0901","kind":"nta","borough_name":"Brooklyn"},"geometry":{"type":"Point","coordinates":[-73.94506425800738,40.666571382690016]}},{"type":"Feature","properties":{"name":"Prospect Lefferts Gardens-Wingate","nta_id":"BK0902","kind":"nta","borough_name":"Brooklyn"},"geometry":{"type":"Point","coordinates":[-73.94837242221388,40.65935557499195]}},{"type":"Feature","properties":{"name":"Bay Ridge","nta_id":"BK1001","kind":"nta","borough_name":"Brooklyn"},"geometry":{"type":"Point","coordinates":[-74.02954517485517,40.62725500088284]}},{"type":"Feature","properties":{"name":"Dyker Heights","nta_id":"BK1002","kind":"nta","borough_name":"Brooklyn"},"geometry":{"type":"Point","coordinates":[-74.00935536760005,40.62416775838144]}},{"type":"Feature","properties":{"name":"Fort Hamilton","nta_id":"BK1061","kind":"nta","borough_name":"Brooklyn"},"geometry":{"type":"Point","coordinates":[-74.02992296253831,40.60949581910235]}},{"type":"Feature","properties":{"name":"Dyker Beach Park","nta_id":"BK1091","kind":"nta","borough_name":"Brooklyn"},"geometry":{"type":"Point","coordinates":[-74.01872993614336,40.611215513860046]}},{"type":"Feature","properties":{"name":"Bensonhurst","nta_id":"BK1101","kind":"nta","borough_name":"Brooklyn"},"geometry":{"type":"Point","coordinates":[-73.99259034394848,40.6132675439637]}},{"type":"Feature","properties":{"name":"Bath Beach","nta_id":"BK1102","kind":"nta","borough_name":"Brooklyn"},"geometry":{"type":"Point","coordinates":[-74.01060925254343,40.603990861315374]}},{"type":"Feature","properties":{"name":"Gravesend (West)","nta_id":"BK1103","kind":"nta","borough_name":"Brooklyn"},"geometry":{"type":"Point","coordinates":[-73.98468147367228,40.5982436945806]}},{"type":"Feature","properties":{"name":"Sunset Park (East)-Borough Park (West)","nta_id":"BK1201","kind":"nta","borough_name":"Brooklyn"},"geometry":{"type":"Point","coordinates":[-74.00026541160892,40.63980610258538]}},{"type":"Feature","properties":{"name":"Borough Park","nta_id":"BK1202","kind":"nta","borough_name":"Brooklyn"},"geometry":{"type":"Point","coordinates":[-73.99052605475012,40.633775191460515]}},{"type":"Feature","properties":{"name":"Kensington","nta_id":"BK1203","kind":"nta","borough_name":"Brooklyn"},"geometry":{"type":"Point","coordinates":[-73.97424756774083,40.638987991142656]}},{"type":"Feature","properties":{"name":"Mapleton-Midwood (West)","nta_id":"BK1204","kind":"nta","borough_name":"Brooklyn"},"geometry":{"type":"Point","coordinates":[-73.97202968328503,40.616102546763514]}},{"type":"Feature","properties":{"name":"Gravesend (South)","nta_id":"BK1301","kind":"nta","borough_name":"Brooklyn"},"geometry":{"type":"Point","coordinates":[-73.97744342424194,40.58853814990584]}},{"type":"Feature","properties":{"name":"Coney Island-Sea Gate","nta_id":"BK1302","kind":"nta","borough_name":"Brooklyn"},"geometry":{"type":"Point","coordinates":[-73.9905819228867,40.57653280425142]}},{"type":"Feature","properties":{"name":"Brighton Beach","nta_id":"BK1303","kind":"nta","borough_name":"Brooklyn"},"geometry":{"type":"Point","coordinates":[-73.9606562028543,40.57896004502578]}},{"type":"Feature","properties":{"name":"Calvert Vaux Park","nta_id":"BK1391","kind":"nta","borough_name":"Brooklyn"},"geometry":{"type":"Point","coordinates":[-73.99514779390657,40.58449607165279]}},{"type":"Feature","properties":{"name":"Flatbush","nta_id":"BK1401","kind":"nta","borough_name":"Brooklyn"},"geometry":{"type":"Point","coordinates":[-73.95916275236803,40.64288685364538]}},{"type":"Feature","properties":{"name":"Flatbush (West)-Ditmas Park-Parkville","nta_id":"BK1402","kind":"nta","borough_name":"Brooklyn"},"geometry":{"type":"Point","coordinates":[-73.96361266743213,40.63816140186499]}},{"type":"Feature","properties":{"name":"Midwood","nta_id":"BK1403","kind":"nta","borough_name":"Brooklyn"},"geometry":{"type":"Point","coordinates":[-73.95481329515391,40.62204960719029]}},{"type":"Feature","properties":{"name":"Gravesend (East)-Homecrest","nta_id":"BK1501","kind":"nta","borough_name":"Brooklyn"},"geometry":{"type":"Point","coordinates":[-73.96519359829247,40.60020447411874]}},{"type":"Feature","properties":{"name":"Madison","nta_id":"BK1502","kind":"nta","borough_name":"Brooklyn"},"geometry":{"type":"Point","coordinates":[-73.94725229164618,40.60468181324444]}},{"type":"Feature","properties":{"name":"Sheepshead Bay-Manhattan Beach-Gerritsen Beach","nta_id":"BK1503","kind":"nta","borough_name":"Brooklyn"},"geometry":{"type":"Point","coordinates":[-73.94340203329853,40.588519078669464]}},{"type":"Feature","properties":{"name":"Ocean Hill","nta_id":"BK1601","kind":"nta","borough_name":"Brooklyn"},"geometry":{"type":"Point","coordinates":[-73.91163445355272,40.67773510123689]}},{"type":"Feature","properties":{"name":"Brownsville","nta_id":"BK1602","kind":"nta","borough_name":"Brooklyn"},"geometry":{"type":"Point","coordinates":[-73.90995355771392,40.66373318146191]}},{"type":"Feature","properties":{"name":"East Flatbush-Erasmus","nta_id":"BK1701","kind":"nta","borough_name":"Brooklyn"},"geometry":{"type":"Point","coordinates":[-73.95082796700677,40.64782372437603]}},{"type":"Feature","properties":{"name":"East Flatbush-Farragut","nta_id":"BK1702","kind":"nta","borough_name":"Brooklyn"},"geometry":{"type":"Point","coordinates":[-73.93712018929831,40.638865493907744]}},{"type":"Feature","properties":{"name":"East Flatbush-Rugby","nta_id":"BK1703","kind":"nta","borough_name":"Brooklyn"},"geometry":{"type":"Point","coordinates":[-73.9313954996557,40.65239722663699]}},{"type":"Feature","properties":{"name":"East Flatbush-Remsen Village","nta_id":"BK1704","kind":"nta","borough_name":"Brooklyn"},"geometry":{"type":"Point","coordinates":[-73.91786961781044,40.65568266890391]}},{"type":"Feature","properties":{"name":"Holy Cross Cemetery","nta_id":"BK1771","kind":"nta","borough_name":"Brooklyn"},"geometry":{"type":"Point","coordinates":[-73.93817121394717,40.647816073412905]}},{"type":"Feature","properties":{"name":"Flatlands","nta_id":"BK1801","kind":"nta","borough_name":"Brooklyn"},"geometry":{"type":"Point","coordinates":[-73.93245853852363,40.62683108840369]}},{"type":"Feature","properties":{"name":"Marine Park-Mill Basin-Bergen Beach","nta_id":"BK1802","kind":"nta","borough_name":"Brooklyn"},"geometry":{"type":"Point","coordinates":[-73.9080089685995,40.6178118556423]}},{"type":"Feature","properties":{"name":"Canarsie","nta_id":"BK1803","kind":"nta","borough_name":"Brooklyn"},"geometry":{"type":"Point","coordinates":[-73.90091425916509,40.64110389091218]}},{"type":"Feature","properties":{"name":"Marine Park-Plumb Island","nta_id":"BK1891","kind":"nta","borough_name":"Brooklyn"},"geometry":{"type":"Point","coordinates":[-73.9223001211218,40.583966951124594]}},{"type":"Feature","properties":{"name":"McGuire Fields","nta_id":"BK1892","kind":"nta","borough_name":"Brooklyn"},"geometry":{"type":"Point","coordinates":[-73.89642638280758,40.61341038362494]}},{"type":"Feature","properties":{"name":"Canarsie Park & Pier","nta_id":"BK1893","kind":"nta","borough_name":"Brooklyn"},"geometry":{"type":"Point","coordinates":[-73.88450783353893,40.631284730585875]}},{"type":"Feature","properties":{"name":"Prospect Park","nta_id":"BK5591","kind":"nta","borough_name":"Brooklyn"},"geometry":{"type":"Point","coordinates":[-73.96975685887075,40.65947273444748]}},{"type":"Feature","properties":{"name":"Barren Island-Floyd Bennett Field","nta_id":"BK5691","kind":"nta","borough_name":"Brooklyn"},"geometry":{"type":"Point","coordinates":[-73.8925031618706,40.593460424472774]}},{"type":"Feature","properties":{"name":"Jamaica Bay (West)","nta_id":"BK5692","kind":"nta","borough_name":"Brooklyn"},"geometry":{"type":"Point","coordinates":[-73.85717757696784,40.59944062328982]}},{"type":"Feature","properties":{"name":"Shirley Chisholm State Park","nta_id":"BK5693","kind":"nta","borough_name":"Brooklyn"},"geometry":{"type":"Point","coordinates":[-73.86569603614682,40.64702782316613]}},{"type":"Feature","properties":{"name":"Mott Haven-Port Morris","nta_id":"BX0101","kind":"nta","borough_name":"Bronx"},"geometry":{"type":"Point","coordinates":[-73.91716190162305,40.80770692267089]}},{"type":"Feature","properties":{"name":"Melrose","nta_id":"BX0102","kind":"nta","borough_name":"Bronx"},"geometry":{"type":"Point","coordinates":[-73.91284898361383,40.81924405599507]}},{"type":"Feature","properties":{"name":"Hunts Point","nta_id":"BX0201","kind":"nta","borough_name":"Bronx"},"geometry":{"type":"Point","coordinates":[-73.88555663406912,40.81166534892121]}},{"type":"Feature","properties":{"name":"Longwood","nta_id":"BX0202","kind":"nta","borough_name":"Bronx"},"geometry":{"type":"Point","coordinates":[-73.89864140146639,40.81855417106095]}},{"type":"Feature","properties":{"name":"North & South Brother Islands","nta_id":"BX0291","kind":"nta","borough_name":"Bronx"},"geometry":{"type":"Point","coordinates":[-73.89852126884222,40.80015001213057]}},{"type":"Feature","properties":{"name":"Morrisania","nta_id":"BX0301","kind":"nta","borough_name":"Bronx"},"geometry":{"type":"Point","coordinates":[-73.90397666913425,40.828088321570156]}},{"type":"Feature","properties":{"name":"Claremont Village-Claremont (East)","nta_id":"BX0302","kind":"nta","borough_name":"Bronx"},"geometry":{"type":"Point","coordinates":[-73.90331403133516,40.837611355966374]}},{"type":"Feature","properties":{"name":"Crotona Park East","nta_id":"BX0303","kind":"nta","borough_name":"Bronx"},"geometry":{"type":"Point","coordinates":[-73.88946109658087,40.83197886126786]}},{"type":"Feature","properties":{"name":"Crotona Park","nta_id":"BX0391","kind":"nta","borough_name":"Bronx"},"geometry":{"type":"Point","coordinates":[-73.89306945611364,40.838855709015974]}},{"type":"Feature","properties":{"name":"Concourse-Concourse Village","nta_id":"BX0401","kind":"nta","borough_name":"Bronx"},"geometry":{"type":"Point","coordinates":[-73.92444882326203,40.82532846437266]}},{"type":"Feature","properties":{"name":"Highbridge","nta_id":"BX0402","kind":"nta","borough_name":"Bronx"},"geometry":{"type":"Point","coordinates":[-73.92726268101052,40.83716152106987]}},{"type":"Feature","properties":{"name":"Mount Eden-Claremont (West)","nta_id":"BX0403","kind":"nta","borough_name":"Bronx"},"geometry":{"type":"Point","coordinates":[-73.9152623648668,40.83931284690856]}},{"type":"Feature","properties":{"name":"Yankee Stadium-Macombs Dam Park","nta_id":"BX0491","kind":"nta","borough_name":"Bronx"},"geometry":{"type":"Point","coordinates":[-73.92533343467787,40.83117381777366]}},{"type":"Feature","properties":{"name":"Claremont Park","nta_id":"BX0492","kind":"nta","borough_name":"Bronx"},"geometry":{"type":"Point","coordinates":[-73.90744860423837,40.839625910747]}},{"type":"Feature","properties":{"name":"University Heights (South)-Morris Heights","nta_id":"BX0501","kind":"nta","borough_name":"Bronx"},"geometry":{"type":"Point","coordinates":[-73.91601762916608,40.85220534890931]}},{"type":"Feature","properties":{"name":"Mount Hope","nta_id":"BX0502","kind":"nta","borough_name":"Bronx"},"geometry":{"type":"Point","coordinates":[-73.90297674248771,40.85204428562888]}},{"type":"Feature","properties":{"name":"Fordham Heights","nta_id":"BX0503","kind":"nta","borough_name":"Bronx"},"geometry":{"type":"Point","coordinates":[-73.89946191200671,40.85863647040894]}},{"type":"Feature","properties":{"name":"West Farms","nta_id":"BX0601","kind":"nta","borough_name":"Bronx"},"geometry":{"type":"Point","coordinates":[-73.8810250371674,40.84202916267814]}},{"type":"Feature","properties":{"name":"Tremont","nta_id":"BX0602","kind":"nta","borough_name":"Bronx"},"geometry":{"type":"Point","coordinates":[-73.89238591413023,40.84607549947654]}},{"type":"Feature","properties":{"name":"Belmont","nta_id":"BX0603","kind":"nta","borough_name":"Bronx"},"geometry":{"type":"Point","coordinates":[-73.88782182762077,40.85747231428596]}},{"type":"Feature","properties":{"name":"University Heights (North)-Fordham","nta_id":"BX0701","kind":"nta","borough_name":"Bronx"},"geometry":{"type":"Point","coordinates":[-73.90214047615612,40.86464699489136]}},{"type":"Feature","properties":{"name":"Bedford Park","nta_id":"BX0702","kind":"nta","borough_name":"Bronx"},"geometry":{"type":"Point","coordinates":[-73.89078297855718,40.87352849273583]}},{"type":"Feature","properties":{"name":"Norwood","nta_id":"BX0703","kind":"nta","borough_name":"Bronx"},"geometry":{"type":"Point","coordinates":[-73.87777323685913,40.876488834408576]}},{"type":"Feature","properties":{"name":"Kingsbridge Heights-Van Cortlandt Village","nta_id":"BX0801","kind":"nta","borough_name":"Bronx"},"geometry":{"type":"Point","coordinates":[-73.90209468609669,40.87673150184597]}},{"type":"Feature","properties":{"name":"Kingsbridge-Marble Hill","nta_id":"BX0802","kind":"nta","borough_name":"Bronx"},"geometry":{"type":"Point","coordinates":[-73.90458422140834,40.88228233056745]}},{"type":"Feature","properties":{"name":"Riverdale-Spuyten Duyvil","nta_id":"BX0803","kind":"nta","borough_name":"Bronx"},"geometry":{"type":"Point","coordinates":[-73.90693704467392,40.89651355388786]}},{"type":"Feature","properties":{"name":"Soundview-Bruckner-Bronx River","nta_id":"BX0901","kind":"nta","borough_name":"Bronx"},"geometry":{"type":"Point","coordinates":[-73.87333034467059,40.829531499700664]}},{"type":"Feature","properties":{"name":"Soundview-Clason Point","nta_id":"BX0902","kind":"nta","borough_name":"Bronx"},"geometry":{"type":"Point","coordinates":[-73.86033544800065,40.81560250169453]}},{"type":"Feature","properties":{"name":"Castle Hill-Unionport","nta_id":"BX0903","kind":"nta","borough_name":"Bronx"},"geometry":{"type":"Point","coordinates":[-73.84812344008628,40.82380624811003]}},{"type":"Feature","properties":{"name":"Parkchester","nta_id":"BX0904","kind":"nta","borough_name":"Bronx"},"geometry":{"type":"Point","coordinates":[-73.85785354906152,40.83712280912557]}},{"type":"Feature","properties":{"name":"Soundview Park","nta_id":"BX0991","kind":"nta","borough_name":"Bronx"},"geometry":{"type":"Point","coordinates":[-73.87465689595464,40.81720912778469]}},{"type":"Feature","properties":{"name":"Westchester Square","nta_id":"BX1001","kind":"nta","borough_name":"Bronx"},"geometry":{"type":"Point","coordinates":[-73.84632894646688,40.83871462641362]}},{"type":"Feature","properties":{"name":"Throgs Neck-Schuylerville","nta_id":"BX1002","kind":"nta","borough_name":"Bronx"},"geometry":{"type":"Point","coordinates":[-73.81924947868971,40.82465731623707]}},{"type":"Feature","properties":{"name":"Pelham Bay-Country Club-City Island","nta_id":"BX1003","kind":"nta","borough_name":"Bronx"},"geometry":{"type":"Point","coordinates":[-73.82080291474233,40.84160849670811]}},{"type":"Feature","properties":{"name":"Co-op City","nta_id":"BX1004","kind":"nta","borough_name":"Bronx"},"geometry":{"type":"Point","coordinates":[-73.8283848438746,40.87177415312887]}},{"type":"Feature","properties":{"name":"Hart Island","nta_id":"BX1071","kind":"nta","borough_name":"Bronx"},"geometry":{"type":"Point","coordinates":[-73.7705013199871,40.852770336639495]}},{"type":"Feature","properties":{"name":"Ferry Point Park-St. Raymond Cemetery","nta_id":"BX1091","kind":"nta","borough_name":"Bronx"},"geometry":{"type":"Point","coordinates":[-73.83014340321338,40.81723111296484]}},{"type":"Feature","properties":{"name":"Pelham Parkway-Van Nest","nta_id":"BX1101","kind":"nta","borough_name":"Bronx"},"geometry":{"type":"Point","coordinates":[-73.86524653753989,40.84873420000103]}},{"type":"Feature","properties":{"name":"Morris Park","nta_id":"BX1102","kind":"nta","borough_name":"Bronx"},"geometry":{"type":"Point","coordinates":[-73.85320735531033,40.85040701634834]}},{"type":"Feature","properties":{"name":"Pelham Gardens","nta_id":"BX1103","kind":"nta","borough_name":"Bronx"},"geometry":{"type":"Point","coordinates":[-73.8504908570328,40.86838144305]}},{"type":"Feature","properties":{"name":"Allerton","nta_id":"BX1104","kind":"nta","borough_name":"Bronx"},"geometry":{"type":"Point","coordinates":[-73.86457615450325,40.8643019380647]}},{"type":"Feature","properties":{"name":"Hutchinson Metro Center","nta_id":"BX1161","kind":"nta","borough_name":"Bronx"},"geometry":{"type":"Point","coordinates":[-73.83952591495552,40.85038646015637]}},{"type":"Feature","properties":{"name":"Williamsbridge-Olinville","nta_id":"BX1201","kind":"nta","borough_name":"Bronx"},"geometry":{"type":"Point","coordinates":[-73.85965652801136,40.883284166366316]}},{"type":"Feature","properties":{"name":"Eastchester-Edenwald-Baychester","nta_id":"BX1202","kind":"nta","borough_name":"Bronx"},"geometry":{"type":"Point","coordinates":[-73.84258913926861,40.87830678471016]}},{"type":"Feature","properties":{"name":"Wakefield-Woodlawn","nta_id":"BX1203","kind":"nta","borough_name":"Bronx"},"geometry":{"type":"Point","coordinates":[-73.85672872209298,40.89869882121879]}},{"type":"Feature","properties":{"name":"Woodlawn Cemetery","nta_id":"BX1271","kind":"nta","borough_name":"Bronx"},"geometry":{"type":"Point","coordinates":[-73.87281331124998,40.88856153193587]}},{"type":"Feature","properties":{"name":"Van Cortlandt Park","nta_id":"BX2691","kind":"nta","borough_name":"Bronx"},"geometry":{"type":"Point","coordinates":[-73.88637470128629,40.89750917958821]}},{"type":"Feature","properties":{"name":"Bronx Park","nta_id":"BX2791","kind":"nta","borough_name":"Bronx"},"geometry":{"type":"Point","coordinates":[-73.87581681823556,40.85937279251375]}},{"type":"Feature","properties":{"name":"Pelham Bay Park","nta_id":"BX2891","kind":"nta","borough_name":"Bronx"},"geometry":{"type":"Point","coordinates":[-73.80441211105413,40.86485814523469]}},{"type":"Feature","properties":{"name":"Financial District-Battery Park City","nta_id":"MN0101","kind":"nta","borough_name":"Manhattan"},"geometry":{"type":"Point","coordinates":[-74.00988616650324,40.70970304000092]}},{"type":"Feature","properties":{"name":"Tribeca-Civic Center","nta_id":"MN0102","kind":"nta","borough_name":"Manhattan"},"geometry":{"type":"Point","coordinates":[-74.00642093975497,40.71829459549072]}},{"type":"Feature","properties":{"name":"The Battery-Governors Island-Ellis Island-Liberty Island","nta_id":"MN0191","kind":"nta","borough_name":"Manhattan"},"geometry":{"type":"Point","coordinates":[-74.01935173421555,40.687746388248065]}},{"type":"Feature","properties":{"name":"SoHo-Little Italy-Hudson Square","nta_id":"MN0201","kind":"nta","borough_name":"Manhattan"},"geometry":{"type":"Point","coordinates":[-73.99912359519149,40.721296938268296]}},{"type":"Feature","properties":{"name":"Greenwich Village","nta_id":"MN0202","kind":"nta","borough_name":"Manhattan"},"geometry":{"type":"Point","coordinates":[-73.99644062150956,40.72971419314926]}},{"type":"Feature","properties":{"name":"West Village","nta_id":"MN0203","kind":"nta","borough_name":"Manhattan"},"geometry":{"type":"Point","coordinates":[-74.00430576491384,40.73584964528236]}},{"type":"Feature","properties":{"name":"Chinatown-Two Bridges","nta_id":"MN0301","kind":"nta","borough_name":"Manhattan"},"geometry":{"type":"Point","coordinates":[-73.99289114469495,40.712441401377504]}},{"type":"Feature","properties":{"name":"Lower East Side","nta_id":"MN0302","kind":"nta","borough_name":"Manhattan"},"geometry":{"type":"Point","coordinates":[-73.98297512771504,40.71758303681242]}},{"type":"Feature","properties":{"name":"East Village","nta_id":"MN0303","kind":"nta","borough_name":"Manhattan"},"geometry":{"type":"Point","coordinates":[-73.982028446731,40.72538245159163]}},{"type":"Feature","properties":{"name":"Chelsea-Hudson Yards","nta_id":"MN0401","kind":"nta","borough_name":"Manhattan"},"geometry":{"type":"Point","coordinates":[-74.00205580843681,40.7501781379776]}},{"type":"Feature","properties":{"name":"Hell's Kitchen","nta_id":"MN0402","kind":"nta","borough_name":"Manhattan"},"geometry":{"type":"Point","coordinates":[-73.99207686342785,40.76399115174641]}},{"type":"Feature","properties":{"name":"Midtown South-Flatiron-Union Square","nta_id":"MN0501","kind":"nta","borough_name":"Manhattan"},"geometry":{"type":"Point","coordinates":[-73.9899276984902,40.741081786449925]}},{"type":"Feature","properties":{"name":"Midtown-Times Square","nta_id":"MN0502","kind":"nta","borough_name":"Manhattan"},"geometry":{"type":"Point","coordinates":[-73.98061496015,40.758943887987684]}},{"type":"Feature","properties":{"name":"Stuyvesant Town-Peter Cooper Village","nta_id":"MN0601","kind":"nta","borough_name":"Manhattan"},"geometry":{"type":"Point","coordinates":[-73.9777918022483,40.73220791112655]}},{"type":"Feature","properties":{"name":"Gramercy","nta_id":"MN0602","kind":"nta","borough_name":"Manhattan"},"geometry":{"type":"Point","coordinates":[-73.98395971895079,40.73648110628678]}},{"type":"Feature","properties":{"name":"Murray Hill-Kips Bay","nta_id":"MN0603","kind":"nta","borough_name":"Manhattan"},"geometry":{"type":"Point","coordinates":[-73.97762157227062,40.74365760691413]}},{"type":"Feature","properties":{"name":"East Midtown-Turtle Bay","nta_id":"MN0604","kind":"nta","borough_name":"Manhattan"},"geometry":{"type":"Point","coordinates":[-73.96683994642169,40.7571291524995]}},{"type":"Feature","properties":{"name":"United Nations","nta_id":"MN0661","kind":"nta","borough_name":"Manhattan"},"geometry":{"type":"Point","coordinates":[-73.96742472536044,40.75024734259247]}},{"type":"Feature","properties":{"name":"Upper West Side-Lincoln Square","nta_id":"MN0701","kind":"nta","borough_name":"Manhattan"},"geometry":{"type":"Point","coordinates":[-73.98506988439169,40.774530121740035]}},{"type":"Feature","properties":{"name":"Upper West Side (Central)","nta_id":"MN0702","kind":"nta","borough_name":"Manhattan"},"geometry":{"type":"Point","coordinates":[-73.97443584614373,40.789474030940156]}},{"type":"Feature","properties":{"name":"Upper West Side-Manhattan Valley","nta_id":"MN0703","kind":"nta","borough_name":"Manhattan"},"geometry":{"type":"Point","coordinates":[-73.9673014035997,40.799427876577475]}},{"type":"Feature","properties":{"name":"Upper East Side-Lenox Hill-Roosevelt Island","nta_id":"MN0801","kind":"nta","borough_name":"Manhattan"},"geometry":{"type":"Point","coordinates":[-73.95709117046918,40.76614962973633]}},{"type":"Feature","properties":{"name":"Upper East Side-Carnegie Hill","nta_id":"MN0802","kind":"nta","borough_name":"Manhattan"},"geometry":{"type":"Point","coordinates":[-73.96117526850509,40.77473600300159]}},{"type":"Feature","properties":{"name":"Upper East Side-Yorkville","nta_id":"MN0803","kind":"nta","borough_name":"Manhattan"},"geometry":{"type":"Point","coordinates":[-73.94870388630457,40.77758814511249]}},{"type":"Feature","properties":{"name":"Morningside Heights","nta_id":"MN0901","kind":"nta","borough_name":"Manhattan"},"geometry":{"type":"Point","coordinates":[-73.96163786183666,40.80977062668417]}},{"type":"Feature","properties":{"name":"Manhattanville-West Harlem","nta_id":"MN0902","kind":"nta","borough_name":"Manhattan"},"geometry":{"type":"Point","coordinates":[-73.95430800082795,40.81754690263023]}},{"type":"Feature","properties":{"name":"Hamilton Heights-Sugar Hill","nta_id":"MN0903","kind":"nta","borough_name":"Manhattan"},"geometry":{"type":"Point","coordinates":[-73.94726009320817,40.82763745464143]}},{"type":"Feature","properties":{"name":"Harlem (South)","nta_id":"MN1001","kind":"nta","borough_name":"Manhattan"},"geometry":{"type":"Point","coordinates":[-73.9519174651561,40.804722009863994]}},{"type":"Feature","properties":{"name":"Harlem (North)","nta_id":"MN1002","kind":"nta","borough_name":"Manhattan"},"geometry":{"type":"Point","coordinates":[-73.93894886450025,40.82226190190737]}},{"type":"Feature","properties":{"name":"East Harlem (South)","nta_id":"MN1101","kind":"nta","borough_name":"Manhattan"},"geometry":{"type":"Point","coordinates":[-73.94527012454134,40.79023055029031]}},{"type":"Feature","properties":{"name":"East Harlem (North)","nta_id":"MN1102","kind":"nta","borough_name":"Manhattan"},"geometry":{"type":"Point","coordinates":[-73.93835966485626,40.80482526761337]}},{"type":"Feature","properties":{"name":"Randall's Island","nta_id":"MN1191","kind":"nta","borough_name":"Manhattan"},"geometry":{"type":"Point","coordinates":[-73.92101826087534,40.79143482770096]}},{"type":"Feature","properties":{"name":"Washington Heights (South)","nta_id":"MN1201","kind":"nta","borough_name":"Manhattan"},"geometry":{"type":"Point","coordinates":[-73.9416570730447,40.84056563713712]}},{"type":"Feature","properties":{"name":"Washington Heights (North)","nta_id":"MN1202","kind":"nta","borough_name":"Manhattan"},"geometry":{"type":"Point","coordinates":[-73.93219540962025,40.85936519072567]}},{"type":"Feature","properties":{"name":"Inwood","nta_id":"MN1203","kind":"nta","borough_name":"Manhattan"},"geometry":{"type":"Point","coordinates":[-73.92100143296634,40.86437809100267]}},{"type":"Feature","properties":{"name":"Highbridge Park","nta_id":"MN1291","kind":"nta","borough_name":"Manhattan"},"geometry":{"type":"Point","coordinates":[-73.93036514590852,40.84659642241374]}},{"type":"Feature","properties":{"name":"Inwood Hill Park","nta_id":"MN1292","kind":"nta","borough_name":"Manhattan"},"geometry":{"type":"Point","coordinates":[-73.92506159631807,40.87255920304719]}},{"type":"Feature","properties":{"name":"Central Park","nta_id":"MN6491","kind":"nta","borough_name":"Manhattan"},"geometry":{"type":"Point","coordinates":[-73.96545253901456,40.782631065755794]}},{"type":"Feature","properties":{"name":"Astoria (North)-Ditmars-Steinway","nta_id":"QN0101","kind":"nta","borough_name":"Queens"},"geometry":{"type":"Point","coordinates":[-73.90668986972423,40.77818180483472]}},{"type":"Feature","properties":{"name":"Old Astoria-Hallets Point","nta_id":"QN0102","kind":"nta","borough_name":"Queens"},"geometry":{"type":"Point","coordinates":[-73.93056252563012,40.771381707030926]}},{"type":"Feature","properties":{"name":"Astoria (Central)","nta_id":"QN0103","kind":"nta","borough_name":"Queens"},"geometry":{"type":"Point","coordinates":[-73.92211706204907,40.76487400528438]}},{"type":"Feature","properties":{"name":"Astoria (East)-Woodside (North)","nta_id":"QN0104","kind":"nta","borough_name":"Queens"},"geometry":{"type":"Point","coordinates":[-73.91007362204518,40.76115253714461]}},{"type":"Feature","properties":{"name":"Queensbridge-Ravenswood-Dutch Kills","nta_id":"QN0105","kind":"nta","borough_name":"Queens"},"geometry":{"type":"Point","coordinates":[-73.93927506895747,40.75925407370801]}},{"type":"Feature","properties":{"name":"Rikers Island","nta_id":"QN0151","kind":"nta","borough_name":"Bronx"},"geometry":{"type":"Point","coordinates":[-73.88302473740322,40.791648792836874]}},{"type":"Feature","properties":{"name":"Sunnyside Yards (North)","nta_id":"QN0161","kind":"nta","borough_name":"Queens"},"geometry":{"type":"Point","coordinates":[-73.91715980680522,40.751621691219555]}},{"type":"Feature","properties":{"name":"St. Michael's Cemetery","nta_id":"QN0171","kind":"nta","borough_name":"Queens"},"geometry":{"type":"Point","coordinates":[-73.89921517244404,40.763780708129616]}},{"type":"Feature","properties":{"name":"Astoria Park","nta_id":"QN0191","kind":"nta","borough_name":"Queens"},"geometry":{"type":"Point","coordinates":[-73.92351656725329,40.778433690098176]}},{"type":"Feature","properties":{"name":"Long Island City-Hunters Point","nta_id":"QN0201","kind":"nta","borough_name":"Queens"},"geometry":{"type":"Point","coordinates":[-73.94846150423459,40.746867707819895]}},{"type":"Feature","properties":{"name":"Sunnyside","nta_id":"QN0202","kind":"nta","borough_name":"Queens"},"geometry":{"type":"Point","coordinates":[-73.93093342766392,40.73786040908114]}},{"type":"Feature","properties":{"name":"Woodside","nta_id":"QN0203","kind":"nta","borough_name":"Queens"},"geometry":{"type":"Point","coordinates":[-73.90225993411885,40.74398648666058]}},{"type":"Feature","properties":{"name":"Sunnyside Yards (South)","nta_id":"QN0261","kind":"nta","borough_name":"Queens"},"geometry":{"type":"Point","coordinates":[-73.93315451291008,40.74724156001653]}},{"type":"Feature","properties":{"name":"Calvary & Mount Zion Cemeteries","nta_id":"QN0271","kind":"nta","borough_name":"Queens"},"geometry":{"type":"Point","coordinates":[-73.91392643561609,40.73471604288078]}},{"type":"Feature","properties":{"name":"Jackson Heights","nta_id":"QN0301","kind":"nta","borough_name":"Queens"},"geometry":{"type":"Point","coordinates":[-73.88746016597963,40.75715753255131]}},{"type":"Feature","properties":{"name":"East Elmhurst","nta_id":"QN0302","kind":"nta","borough_name":"Queens"},"geometry":{"type":"Point","coordinates":[-73.87381566945265,40.76349871861392]}},{"type":"Feature","properties":{"name":"North Corona","nta_id":"QN0303","kind":"nta","borough_name":"Queens"},"geometry":{"type":"Point","coordinates":[-73.862690298491,40.754678465506515]}},{"type":"Feature","properties":{"name":"Elmhurst","nta_id":"QN0401","kind":"nta","borough_name":"Queens"},"geometry":{"type":"Point","coordinates":[-73.87684490478776,40.737799258812245]}},{"type":"Feature","properties":{"name":"Corona","nta_id":"QN0402","kind":"nta","borough_name":"Queens"},"geometry":{"type":"Point","coordinates":[-73.86031481629264,40.74544517510141]}},{"type":"Feature","properties":{"name":"Maspeth","nta_id":"QN0501","kind":"nta","borough_name":"Queens"},"geometry":{"type":"Point","coordinates":[-73.9099684903467,40.723782258667]}},{"type":"Feature","properties":{"name":"Ridgewood","nta_id":"QN0502","kind":"nta","borough_name":"Queens"},"geometry":{"type":"Point","coordinates":[-73.90211669149657,40.70289842216356]}},{"type":"Feature","properties":{"name":"Glendale","nta_id":"QN0503","kind":"nta","borough_name":"Queens"},"geometry":{"type":"Point","coordinates":[-73.88143389460022,40.70274613971969]}},{"type":"Feature","properties":{"name":"Middle Village","nta_id":"QN0504","kind":"nta","borough_name":"Queens"},"geometry":{"type":"Point","coordinates":[-73.87990095015023,40.718686034716924]}},{"type":"Feature","properties":{"name":"Mount Olivet & All Faiths Cemeteries","nta_id":"QN0571","kind":"nta","borough_name":"Queens"},"geometry":{"type":"Point","coordinates":[-73.8958911377167,40.71808355256428]}},{"type":"Feature","properties":{"name":"Middle Village Cemetery","nta_id":"QN0572","kind":"nta","borough_name":"Queens"},"geometry":{"type":"Point","coordinates":[-73.88342814421117,40.709283307091795]}},{"type":"Feature","properties":{"name":"St. John Cemetery","nta_id":"QN0573","kind":"nta","borough_name":"Queens"},"geometry":{"type":"Point","coordinates":[-73.86584424490084,40.71447072781641]}},{"type":"Feature","properties":{"name":"Highland Park-Cypress Hills Cemeteries (North)","nta_id":"QN0574","kind":"nta","borough_name":"Queens"},"geometry":{"type":"Point","coordinates":[-73.88517555609165,40.69255980852565]}},{"type":"Feature","properties":{"name":"Rego Park","nta_id":"QN0601","kind":"nta","borough_name":"Queens"},"geometry":{"type":"Point","coordinates":[-73.86385875485783,40.72347933782132]}},{"type":"Feature","properties":{"name":"Forest Hills","nta_id":"QN0602","kind":"nta","borough_name":"Queens"},"geometry":{"type":"Point","coordinates":[-73.84800470976857,40.72309197485305]}},{"type":"Feature","properties":{"name":"College Point","nta_id":"QN0701","kind":"nta","borough_name":"Queens"},"geometry":{"type":"Point","coordinates":[-73.83722180311044,40.781908231346506]}},{"type":"Feature","properties":{"name":"Whitestone-Beechhurst","nta_id":"QN0702","kind":"nta","borough_name":"Queens"},"geometry":{"type":"Point","coordinates":[-73.8069384245267,40.788460165323784]}},{"type":"Feature","properties":{"name":"Bay Terrace-Clearview","nta_id":"QN0703","kind":"nta","borough_name":"Queens"},"geometry":{"type":"Point","coordinates":[-73.78684625879316,40.78220337041118]}},{"type":"Feature","properties":{"name":"Murray Hill-Broadway Flushing","nta_id":"QN0704","kind":"nta","borough_name":"Queens"},"geometry":{"type":"Point","coordinates":[-73.8088199199797,40.76741620175798]}},{"type":"Feature","properties":{"name":"East Flushing","nta_id":"QN0705","kind":"nta","borough_name":"Queens"},"geometry":{"type":"Point","coordinates":[-73.80660088087365,40.753696716707154]}},{"type":"Feature","properties":{"name":"Queensboro Hill","nta_id":"QN0706","kind":"nta","borough_name":"Queens"},"geometry":{"type":"Point","coordinates":[-73.8248169679809,40.74440261907705]}},{"type":"Feature","properties":{"name":"Flushing-Willets Point","nta_id":"QN0707","kind":"nta","borough_name":"Queens"},"geometry":{"type":"Point","coordinates":[-73.83329424811853,40.759786129625176]}},{"type":"Feature","properties":{"name":"Fort Totten","nta_id":"QN0761","kind":"nta","borough_name":"Queens"},"geometry":{"type":"Point","coordinates":[-73.77691297840684,40.79133580538627]}},{"type":"Feature","properties":{"name":"Kissena Park","nta_id":"QN0791","kind":"nta","borough_name":"Queens"},"geometry":{"type":"Point","coordinates":[-73.8042454400983,40.74594225864156]}},{"type":"Feature","properties":{"name":"Kew Gardens Hills","nta_id":"QN0801","kind":"nta","borough_name":"Queens"},"geometry":{"type":"Point","coordinates":[-73.82207693044592,40.72731321078304]}},{"type":"Feature","properties":{"name":"Pomonok-Electchester-Hillcrest","nta_id":"QN0802","kind":"nta","borough_name":"Queens"},"geometry":{"type":"Point","coordinates":[-73.80253500788187,40.7272102007026]}},{"type":"Feature","properties":{"name":"Fresh Meadows-Utopia","nta_id":"QN0803","kind":"nta","borough_name":"Queens"},"geometry":{"type":"Point","coordinates":[-73.78769561434643,40.73385967443511]}},{"type":"Feature","properties":{"name":"Jamaica Estates-Holliswood","nta_id":"QN0804","kind":"nta","borough_name":"Queens"},"geometry":{"type":"Point","coordinates":[-73.77614534929992,40.720050111393604]}},{"type":"Feature","properties":{"name":"Jamaica Hills-Briarwood","nta_id":"QN0805","kind":"nta","borough_name":"Queens"},"geometry":{"type":"Point","coordinates":[-73.80762744113638,40.71134622003161]}},{"type":"Feature","properties":{"name":"Mount Hebron & Cedar Grove Cemeteries","nta_id":"QN0871","kind":"nta","borough_name":"Queens"},"geometry":{"type":"Point","coordinates":[-73.83036612893271,40.736023464967786]}},{"type":"Feature","properties":{"name":"Cunningham Park","nta_id":"QN0891","kind":"nta","borough_name":"Queens"},"geometry":{"type":"Point","coordinates":[-73.76789100603841,40.733710928282825]}},{"type":"Feature","properties":{"name":"Kew Gardens","nta_id":"QN0901","kind":"nta","borough_name":"Queens"},"geometry":{"type":"Point","coordinates":[-73.82924859330181,40.7084942436486]}},{"type":"Feature","properties":{"name":"Richmond Hill","nta_id":"QN0902","kind":"nta","borough_name":"Queens"},"geometry":{"type":"Point","coordinates":[-73.83242968651095,40.696455546439104]}},{"type":"Feature","properties":{"name":"South Richmond Hill","nta_id":"QN0903","kind":"nta","borough_name":"Queens"},"geometry":{"type":"Point","coordinates":[-73.82628771212714,40.69062382084746]}},{"type":"Feature","properties":{"name":"Ozone Park (North)","nta_id":"QN0904","kind":"nta","borough_name":"Queens"},"geometry":{"type":"Point","coordinates":[-73.84672798315785,40.68579544665399]}},{"type":"Feature","properties":{"name":"Woodhaven","nta_id":"QN0905","kind":"nta","borough_name":"Queens"},"geometry":{"type":"Point","coordinates":[-73.85711018066203,40.69159865849386]}},{"type":"Feature","properties":{"name":"South Ozone Park","nta_id":"QN1001","kind":"nta","borough_name":"Queens"},"geometry":{"type":"Point","coordinates":[-73.82097046173266,40.6777703208359]}},{"type":"Feature","properties":{"name":"Ozone Park","nta_id":"QN1002","kind":"nta","borough_name":"Queens"},"geometry":{"type":"Point","coordinates":[-73.85001743283891,40.67705032024587]}},{"type":"Feature","properties":{"name":"Howard Beach-Lindenwood","nta_id":"QN1003","kind":"nta","borough_name":"Queens"},"geometry":{"type":"Point","coordinates":[-73.8488979129566,40.661428996586594]}},{"type":"Feature","properties":{"name":"Spring Creek Park","nta_id":"QN1091","kind":"nta","borough_name":"Queens"},"geometry":{"type":"Point","coordinates":[-73.85218032340832,40.652192096337856]}},{"type":"Feature","properties":{"name":"Auburndale","nta_id":"QN1101","kind":"nta","borough_name":"Queens"},"geometry":{"type":"Point","coordinates":[-73.78568560119683,40.75568052070503]}},{"type":"Feature","properties":{"name":"Bayside","nta_id":"QN1102","kind":"nta","borough_name":"Queens"},"geometry":{"type":"Point","coordinates":[-73.76847440836707,40.76161039675878]}},{"type":"Feature","properties":{"name":"Douglaston-Little Neck","nta_id":"QN1103","kind":"nta","borough_name":"Queens"},"geometry":{"type":"Point","coordinates":[-73.73085098563072,40.76184680970166]}},{"type":"Feature","properties":{"name":"Oakland Gardens-Hollis Hills","nta_id":"QN1104","kind":"nta","borough_name":"Queens"},"geometry":{"type":"Point","coordinates":[-73.75370988514405,40.73938834716397]}},{"type":"Feature","properties":{"name":"Alley Pond Park","nta_id":"QN1191","kind":"nta","borough_name":"Queens"},"geometry":{"type":"Point","coordinates":[-73.74436005184464,40.75281445795881]}},{"type":"Feature","properties":{"name":"Jamaica","nta_id":"QN1201","kind":"nta","borough_name":"Queens"},"geometry":{"type":"Point","coordinates":[-73.80088557864894,40.70278399326028]}},{"type":"Feature","properties":{"name":"South Jamaica","nta_id":"QN1202","kind":"nta","borough_name":"Queens"},"geometry":{"type":"Point","coordinates":[-73.79186128076648,40.6942797452881]}},{"type":"Feature","properties":{"name":"Baisley Park","nta_id":"QN1203","kind":"nta","borough_name":"Queens"},"geometry":{"type":"Point","coordinates":[-73.7913300733376,40.678746823169114]}},{"type":"Feature","properties":{"name":"Springfield Gardens (North)-Rochdale Village","nta_id":"QN1204","kind":"nta","borough_name":"Queens"},"geometry":{"type":"Point","coordinates":[-73.77313382477928,40.67595370647642]}},{"type":"Feature","properties":{"name":"St. Albans","nta_id":"QN1205","kind":"nta","borough_name":"Queens"},"geometry":{"type":"Point","coordinates":[-73.76260281795797,40.6912420925714]}},{"type":"Feature","properties":{"name":"Hollis","nta_id":"QN1206","kind":"nta","borough_name":"Queens"},"geometry":{"type":"Point","coordinates":[-73.76472014227353,40.71263520909936]}},{"type":"Feature","properties":{"name":"Glen Oaks-Floral Park-New Hyde Park","nta_id":"QN1301","kind":"nta","borough_name":"Queens"},"geometry":{"type":"Point","coordinates":[-73.7088995955055,40.743391039077764]}},{"type":"Feature","properties":{"name":"Bellerose","nta_id":"QN1302","kind":"nta","borough_name":"Queens"},"geometry":{"type":"Point","coordinates":[-73.72783727744525,40.73734797550039]}},{"type":"Feature","properties":{"name":"Queens Village","nta_id":"QN1303","kind":"nta","borough_name":"Queens"},"geometry":{"type":"Point","coordinates":[-73.7421434003447,40.716245925901504]}},{"type":"Feature","properties":{"name":"Cambria Heights","nta_id":"QN1304","kind":"nta","borough_name":"Queens"},"geometry":{"type":"Point","coordinates":[-73.73615576227897,40.69136722285468]}},{"type":"Feature","properties":{"name":"Laurelton","nta_id":"QN1305","kind":"nta","borough_name":"Queens"},"geometry":{"type":"Point","coordinates":[-73.74441032709953,40.67625889411177]}},{"type":"Feature","properties":{"name":"Springfield Gardens (South)-Brookville","nta_id":"QN1306","kind":"nta","borough_name":"Queens"},"geometry":{"type":"Point","coordinates":[-73.75673746266614,40.65681339718109]}},{"type":"Feature","properties":{"name":"Rosedale","nta_id":"QN1307","kind":"nta","borough_name":"Queens"},"geometry":{"type":"Point","coordinates":[-73.73507375676485,40.660015072085216]}},{"type":"Feature","properties":{"name":"Montefiore Cemetery","nta_id":"QN1371","kind":"nta","borough_name":"Queens"},"geometry":{"type":"Point","coordinates":[-73.74220448623261,40.685832661772196]}},{"type":"Feature","properties":{"name":"Far Rockaway-Bayswater","nta_id":"QN1401","kind":"nta","borough_name":"Queens"},"geometry":{"type":"Point","coordinates":[-73.75440603412622,40.60218847215582]}},{"type":"Feature","properties":{"name":"Rockaway Beach-Arverne-Edgemere","nta_id":"QN1402","kind":"nta","borough_name":"Queens"},"geometry":{"type":"Point","coordinates":[-73.78742921454582,40.59218152506178]}},{"type":"Feature","properties":{"name":"Breezy Point-Belle Harbor-Rockaway Park-Broad Channel","nta_id":"QN1403","kind":"nta","borough_name":"Queens"},"geometry":{"type":"Point","coordinates":[-73.84852592403755,40.576854829682965]}},{"type":"Feature","properties":{"name":"Rockaway Community Park","nta_id":"QN1491","kind":"nta","borough_name":"Queens"},"geometry":{"type":"Point","coordinates":[-73.77970141100249,40.60292752012945]}},{"type":"Feature","properties":{"name":"LaGuardia Airport","nta_id":"QN8081","kind":"nta","borough_name":"Queens"},"geometry":{"type":"Point","coordinates":[-73.87253986392614,40.77469302598148]}},{"type":"Feature","properties":{"name":"Flushing Meadows-Corona Park","nta_id":"QN8191","kind":"nta","borough_name":"Queens"},"geometry":{"type":"Point","coordinates":[-73.84171567537533,40.73898515323974]}},{"type":"Feature","properties":{"name":"Forest Park","nta_id":"QN8291","kind":"nta","borough_name":"Queens"},"geometry":{"type":"Point","coordinates":[-73.84821372560683,40.70186768303208]}},{"type":"Feature","properties":{"name":"John F. Kennedy International Airport","nta_id":"QN8381","kind":"nta","borough_name":"Queens"},"geometry":{"type":"Point","coordinates":[-73.77802207064045,40.64245488558234]}},{"type":"Feature","properties":{"name":"Jamaica Bay (East)","nta_id":"QN8491","kind":"nta","borough_name":"Queens"},"geometry":{"type":"Point","coordinates":[-73.79076308220849,40.61536083733484]}},{"type":"Feature","properties":{"name":"Jacob Riis Park-Fort Tilden-Breezy Point Tip","nta_id":"QN8492","kind":"nta","borough_name":"Queens"},"geometry":{"type":"Point","coordinates":[-73.8994073811049,40.559106015557674]}},{"type":"Feature","properties":{"name":"St. George-New Brighton","nta_id":"SI0101","kind":"nta","borough_name":"Staten Island"},"geometry":{"type":"Point","coordinates":[-74.08671806373431,40.6420961196953]}},{"type":"Feature","properties":{"name":"Tompkinsville-Stapleton-Clifton-Fox Hills","nta_id":"SI0102","kind":"nta","borough_name":"Staten Island"},"geometry":{"type":"Point","coordinates":[-74.07971215116248,40.62564447579548]}},{"type":"Feature","properties":{"name":"Rosebank-Shore Acres-Park Hill","nta_id":"SI0103","kind":"nta","borough_name":"Staten Island"},"geometry":{"type":"Point","coordinates":[-74.07347569841207,40.61496974599547]}},{"type":"Feature","properties":{"name":"West New Brighton-Silver Lake-Grymes Hill","nta_id":"SI0104","kind":"nta","borough_name":"Staten Island"},"geometry":{"type":"Point","coordinates":[-74.10195596813278,40.62694311316612]}},{"type":"Feature","properties":{"name":"Westerleigh-Castleton Corners","nta_id":"SI0105","kind":"nta","borough_name":"Staten Island"},"geometry":{"type":"Point","coordinates":[-74.1289786226224,40.61996623835296]}},{"type":"Feature","properties":{"name":"Port Richmond","nta_id":"SI0106","kind":"nta","borough_name":"Staten Island"},"geometry":{"type":"Point","coordinates":[-74.13160265279106,40.633487689094466]}},{"type":"Feature","properties":{"name":"Mariner's Harbor-Arlington-Graniteville","nta_id":"SI0107","kind":"nta","borough_name":"Staten Island"},"geometry":{"type":"Point","coordinates":[-74.16460179899616,40.62849677767098]}},{"type":"Feature","properties":{"name":"Snug Harbor","nta_id":"SI0191","kind":"nta","borough_name":"Staten Island"},"geometry":{"type":"Point","coordinates":[-74.10307370527565,40.64164066038643]}},{"type":"Feature","properties":{"name":"Grasmere-Arrochar-South Beach-Dongan Hills","nta_id":"SI0201","kind":"nta","borough_name":"Staten Island"},"geometry":{"type":"Point","coordinates":[-74.08024725412756,40.593520128589034]}},{"type":"Feature","properties":{"name":"New Dorp-Midland Beach","nta_id":"SI0202","kind":"nta","borough_name":"Staten Island"},"geometry":{"type":"Point","coordinates":[-74.11355569776751,40.57252555716262]}},{"type":"Feature","properties":{"name":"Todt Hill-Emerson Hill-Lighthouse Hill-Manor Heights","nta_id":"SI0203","kind":"nta","borough_name":"Staten Island"},"geometry":{"type":"Point","coordinates":[-74.12634765104113,40.58554438353404]}},{"type":"Feature","properties":{"name":"New Springville-Willowbrook-Bulls Head-Travis","nta_id":"SI0204","kind":"nta","borough_name":"Staten Island"},"geometry":{"type":"Point","coordinates":[-74.15615908239859,40.60273996606094]}},{"type":"Feature","properties":{"name":"Freshkills Park (North)","nta_id":"SI0291","kind":"nta","borough_name":"Staten Island"},"geometry":{"type":"Point","coordinates":[-74.1844871736615,40.58190859210301]}},{"type":"Feature","properties":{"name":"Oakwood-Richmondtown","nta_id":"SI0301","kind":"nta","borough_name":"Staten Island"},"geometry":{"type":"Point","coordinates":[-74.11946974440377,40.56147921246989]}},{"type":"Feature","properties":{"name":"Great Kills-Eltingville","nta_id":"SI0302","kind":"nta","borough_name":"Staten Island"},"geometry":{"type":"Point","coordinates":[-74.15854448336955,40.54903909381992]}},{"type":"Feature","properties":{"name":"Arden Heights-Rossville","nta_id":"SI0303","kind":"nta","borough_name":"Staten Island"},"geometry":{"type":"Point","coordinates":[-74.19726662410568,40.55364630831759]}},{"type":"Feature","properties":{"name":"Annadale-Huguenot-Prince's Bay-Woodrow","nta_id":"SI0304","kind":"nta","borough_name":"Staten Island"},"geometry":{"type":"Point","coordinates":[-74.19344681850625,40.52665970153548]}},{"type":"Feature","properties":{"name":"Tottenville-Charleston","nta_id":"SI0305","kind":"nta","borough_name":"Staten Island"},"geometry":{"type":"Point","coordinates":[-74.23330591035116,40.5277487333707]}},{"type":"Feature","properties":{"name":"Freshkills Park (South)","nta_id":"SI0391","kind":"nta","borough_name":"Staten Island"},"geometry":{"type":"Point","coordinates":[-74.19411500740932,40.56719499767148]}},{"type":"Feature","properties":{"name":"Fort Wadsworth","nta_id":"SI9561","kind":"nta","borough_name":"Staten Island"},"geometry":{"type":"Point","coordinates":[-74.05750483914056,40.600876263747125]}},{"type":"Feature","properties":{"name":"Hoffman & Swinburne Islands","nta_id":"SI9591","kind":"nta","borough_name":"Staten Island"},"geometry":{"type":"Point","coordinates":[-74.05391891277412,40.578737036574815]}},{"type":"Feature","properties":{"name":"Miller Field","nta_id":"SI9592","kind":"nta","borough_name":"Staten Island"},"geometry":{"type":"Point","coordinates":[-74.09971957179579,40.56843127690803]}},{"type":"Feature","properties":{"name":"Great Kills Park","nta_id":"SI9593","kind":"nta","borough_name":"Staten Island"},"geometry":{"type":"Point","coordinates":[-74.12587080714006,40.54324181398388]}}]}