{"type":"FeatureCollection","features":[{"type":"Feature","properties":{"name":"McDonald Avenue","class":3},"geometry":{"type":"Point","coordinates":[-73.98113,40.65171]}},{"type":"Feature","properties":{"name":"Belt Parkway","class":1},"geometry":{"type":"Point","coordinates":[-74.02502,40.64005]}},{"type":"Feature","properties":{"name":"North Conduit Avenue","class":3},"geometry":{"type":"Point","coordinates":[-73.85505,40.67309]}},{"type":"Feature","properties":{"name":"Brooklyn-Battery Tunnel","class":1},"geometry":{"type":"Point","coordinates":[-74.01241,40.6929]}},{"type":"Feature","properties":{"name":"Cross Bronx Expressway","class":1},"geometry":{"type":"Point","coordinates":[-73.81526,40.82136]}},{"type":"Feature","properties":{"name":"Throgs Neck Expressway","class":1},"geometry":{"type":"Point","coordinates":[-73.81508,40.82305]}},{"type":"Feature","properties":{"name":"West Gun Hill Road","class":3},"geometry":{"type":"Point","coordinates":[-73.88421,40.88319]}},{"type":"Feature","properties":{"name":"Grand Avenue","class":3},"geometry":{"type":"Point","coordinates":[-73.91732,40.71798]}},{"type":"Feature","properties":{"name":"Edgemere Avenue","class":3},"geometry":{"type":"Point","coordinates":[-73.77711,40.5927]}},{"type":"Feature","properties":{"name":"JFK Expressway","class":1},"geometry":{"type":"Point","coordinates":[-73.78345,40.66671]}},{"type":"Feature","properties":{"name":"West Shore Expressway","class":1},"geometry":{"type":"Point","coordinates":[-74.22176,40.52618]}},{"type":"Feature","properties":{"name":"Major Deegan Expressway","class":1},"geometry":{"type":"Point","coordinates":[-73.91851,40.85523]}},{"type":"Feature","properties":{"name":"George Washington Bridge Upper Level","class":1},"geometry":{"type":"Point","coordinates":[-73.94842,40.85089]}},{"type":"Feature","properties":{"name":"Henry Hudson Parkway","class":1},"geometry":{"type":"Point","coordinates":[-73.9221,40.87779]}},{"type":"Feature","properties":{"name":"Bruckner Expressway","class":1},"geometry":{"type":"Point","coordinates":[-73.84053,40.82887]}},{"type":"Feature","properties":{"name":"Queens-Midtown Tunnel","class":1},"geometry":{"type":"Point","coordinates":[-73.96293,40.7444]}},{"type":"Feature","properties":{"name":"FDR Drive","class":1},"geometry":{"type":"Point","coordinates":[-73.98913,40.71001]}},{"type":"Feature","properties":{"name":"Mount Vernon Avenue","class":3},"geometry":{"type":"Point","coordinates":[-73.84709,40.91212]}},{"type":"Feature","properties":{"name":"Bronx-Whitestone Bridge","class":1},"geometry":{"type":"Point","coordinates":[-73.83047,40.80334]}},{"type":"Feature","properties":{"name":"Cross Island Parkway","class":1},"geometry":{"type":"Point","coordinates":[-73.79045,40.78817]}},{"type":"Feature","properties":{"name":"Northern Boulevard","class":3},"geometry":{"type":"Point","coordinates":[-73.84208,40.76226]}},{"type":"Feature","properties":{"name":"Brooklyn-Queens Expressway West","class":1},"geometry":{"type":"Point","coordinates":[-73.90423,40.76712]}},{"type":"Feature","properties":{"name":"Union Turnpike","class":3},"geometry":{"type":"Point","coordinates":[-73.7736,40.73113]}},{"type":"Feature","properties":{"name":"Queensboro Bridge (Lower Level)","class":2},"geometry":{"type":"Point","coordinates":[-73.94538,40.75297]}},{"type":"Feature","properties":{"name":"Narrows Road South","class":3},"geometry":{"type":"Point","coordinates":[-74.08634,40.60685]}},{"type":"Feature","properties":{"name":"Narrows Road North","class":3},"geometry":{"type":"Point","coordinates":[-74.07184,40.60543]}},{"type":"Feature","properties":{"name":"Gowanus Expressway","class":1},"geometry":{"type":"Point","coordinates":[-74.01703,40.63056]}},{"type":"Feature","properties":{"name":"Cross Bay Boulevard","class":3},"geometry":{"type":"Point","coordinates":[-73.83477,40.64231]}},{"type":"Feature","properties":{"name":"Grand Central Parkway","class":1},"geometry":{"type":"Point","coordinates":[-73.71741,40.75946]}},{"type":"Feature","properties":{"name":"Brooklyn-Queens Expressway","class":1},"geometry":{"type":"Point","coordinates":[-73.94267,40.72119]}},{"type":"Feature","properties":{"name":"Mosholu Parkway","class":1},"geometry":{"type":"Point","coordinates":[-73.88449,40.89764]}},{"type":"Feature","properties":{"name":"Boody Street","class":3},"geometry":{"type":"Point","coordinates":[-73.89611,40.7632]}},{"type":"Feature","properties":{"name":"Williamsburg Bridge","class":1},"geometry":{"type":"Point","coordinates":[-73.97171,40.71357]}},{"type":"Feature","properties":{"name":"Throgs Neck Bridge","class":1},"geometry":{"type":"Point","coordinates":[-73.79393,40.80898]}},{"type":"Feature","properties":{"name":"Long Island Expressway","class":1},"geometry":{"type":"Point","coordinates":[-73.75348,40.75013]}},{"type":"Feature","properties":{"name":"Nassau Expressway","class":1},"geometry":{"type":"Point","coordinates":[-73.78568,40.66404]}},{"type":"Feature","properties":{"name":"New England Thruway","class":1},"geometry":{"type":"Point","coordinates":[-73.80234,40.88812]}},{"type":"Feature","properties":{"name":"Brooklyn Bridge","class":2},"geometry":{"type":"Point","coordinates":[-73.99642,40.70564]}},{"type":"Feature","properties":{"name":"Manhattan Bridge","class":3},"geometry":{"type":"Point","coordinates":[-73.99064,40.70705]}},{"type":"Feature","properties":{"name":"Manhattan Bridge (lower level)","class":3},"geometry":{"type":"Point","coordinates":[-73.99051,40.70706]}},{"type":"Feature","properties":{"name":"Harlem River Drive","class":1},"geometry":{"type":"Point","coordinates":[-73.93461,40.8237]}},{"type":"Feature","properties":{"name":"Pelham Parkway","class":3},"geometry":{"type":"Point","coordinates":[-73.84953,40.8581]}},{"type":"Feature","properties":{"name":"Holland Tunnel","class":1},"geometry":{"type":"Point","coordinates":[-74.01398,40.72648]}},{"type":"Feature","properties":{"name":"George Washington Bridge Lower Level","class":1},"geometry":{"type":"Point","coordinates":[-73.948,40.85082]}},{"type":"Feature","properties":{"name":"I 95","class":1},"geometry":{"type":"Point","coordinates":[-73.84012,40.82845]}},{"type":"Feature","properties":{"name":"Verrazzano-Narrows Bridge","class":1},"geometry":{"type":"Point","coordinates":[-74.03919,40.60847]}},{"type":"Feature","properties":{"name":"Bronx River Parkway","class":1},"geometry":{"type":"Point","coordinates":[-73.86682,40.88646]}},{"type":"Feature","properties":{"name":"Hutchinson River Parkway","class":1},"geometry":{"type":"Point","coordinates":[-73.82437,40.86548]}},{"type":"Feature","properties":{"name":"Clearview Expressway","class":1},"geometry":{"type":"Point","coordinates":[-73.78381,40.77217]}},{"type":"Feature","properties":{"name":"Dr. Martin Luther King Jr. Expressway","class":1},"geometry":{"type":"Point","coordinates":[-74.14892,40.621]}},{"type":"Feature","properties":{"name":"Lincoln Tunnel","class":1},"geometry":{"type":"Point","coordinates":[-74.00352,40.75981]}},{"type":"Feature","properties":{"name":"Flatbush Avenue","class":3},"geometry":{"type":"Point","coordinates":[-73.89583,40.58575]}},{"type":"Feature","properties":{"name":"Park Avenue","class":3},"geometry":{"type":"Point","coordinates":[-73.95888,40.77806]}},{"type":"Feature","properties":{"name":"Staten Island Expressway","class":1},"geometry":{"type":"Point","coordinates":[-74.1737,40.62213]}},{"type":"Feature","properties":{"name":"Outerbridge Crossing","class":1},"geometry":{"type":"Point","coordinates":[-74.24076,40.52518]}},{"type":"Feature","properties":{"name":"Van Wyck Expressway","class":1},"geometry":{"type":"Point","coordinates":[-73.81349,40.69677]}},{"type":"Feature","properties":{"name":"West Street","class":2},"geometry":{"type":"Point","coordinates":[-74.01038,40.73452]}},{"type":"Feature","properties":{"name":"Whitestone Expressway","class":1},"geometry":{"type":"Point","coordinates":[-73.83906,40.76588]}},{"type":"Feature","properties":{"name":"South Conduit Avenue","class":2},"geometry":{"type":"Point","coordinates":[-73.74426,40.66537]}},{"type":"Feature","properties":{"name":"Robert F. Kennedy Bridge","class":1},"geometry":{"type":"Point","coordinates":[-73.92241,40.7948]}},{"type":"Feature","properties":{"name":"West Side Highway","class":1},"geometry":{"type":"Point","coordinates":[-73.9902,40.77708]}},{"type":"Feature","properties":{"name":"Korean War Veterans Parkway","class":1},"geometry":{"type":"Point","coordinates":[-74.17692,40.5536]}},{"type":"Feature","properties":{"name":"Jackie Robinson Parkway","class":1},"geometry":{"type":"Point","coordinates":[-73.84765,40.70787]}},{"type":"Feature","properties":{"name":"Broadway","class":3},"geometry":{"type":"Point","coordinates":[-73.8967,40.89571]}},{"type":"Feature","properties":{"name":"Ed Koch Queensboro Bridge Lower Level","class":2},"geometry":{"type":"Point","coordinates":[-73.95471,40.75704]}},{"type":"Feature","properties":{"name":"Ed Koch Queensboro Bridge Lower Roadway","class":2},"geometry":{"type":"Point","coordinates":[-73.95479,40.75692]}},{"type":"Feature","properties":{"name":"Ed Koch Queensboro Bridge Upper Level","class":2},"geometry":{"type":"Point","coordinates":[-73.95477,40.75695]}},{"type":"Feature","properties":{"name":"4th Avenue","class":3},"geometry":{"type":"Point","coordinates":[-74.02716,40.62571]}},{"type":"Feature","properties":{"name":"Queens Boulevard","class":3},"geometry":{"type":"Point","coordinates":[-73.92238,40.74375]}},{"type":"Feature","properties":{"name":"Beach Channel Drive","class":3},"geometry":{"type":"Point","coordinates":[-73.83024,40.58405]}},{"type":"Feature","properties":{"name":"Myrtle Avenue","class":3},"geometry":{"type":"Point","coordinates":[-73.83591,40.70047]}},{"type":"Feature","properties":{"name":"Atlantic Avenue","class":3},"geometry":{"type":"Point","coordinates":[-73.81753,40.69629]}},{"type":"Feature","properties":{"name":"Francis Lewis Boulevard","class":3},"geometry":{"type":"Point","coordinates":[-73.75677,40.71748]}},{"type":"Feature","properties":{"name":"Rockaway Boulevard","class":2},"geometry":{"type":"Point","coordinates":[-73.75121,40.64715]}},{"type":"Feature","properties":{"name":"Bay Parkway","class":3},"geometry":{"type":"Point","coordinates":[-73.98395,40.61142]}},{"type":"Feature","properties":{"name":"Prospect Expressway","class":1},"geometry":{"type":"Point","coordinates":[-73.98053,40.65576]}},{"type":"Feature","properties":{"name":"Church Avenue","class":3},"geometry":{"type":"Point","coordinates":[-73.96787,40.64755]}},{"type":"Feature","properties":{"name":"Goethals Bridge","class":1},"geometry":{"type":"Point","coordinates":[-74.19493,40.63402]}},{"type":"Feature","properties":{"name":"Hylan Boulevard","class":3},"geometry":{"type":"Point","coordinates":[-74.21421,40.51059]}},{"type":"Feature","properties":{"name":"Jamaica Avenue","class":3},"geometry":{"type":"Point","coordinates":[-73.76404,40.71331]}},{"type":"Feature","properties":{"name":"Greenpoint Avenue","class":3},"geometry":{"type":"Point","coordinates":[-73.9211,40.7412]}},{"type":"Feature","properties":{"name":"Avenue P","class":3},"geometry":{"type":"Point","coordinates":[-73.97692,40.6084]}},{"type":"Feature","properties":{"name":"Gowanus Expressway (HOV)","class":1},"geometry":{"type":"Point","coordinates":[-74.00053,40.66139]}},{"type":"Feature","properties":{"name":"3rd Avenue","class":3},"geometry":{"type":"Point","coordinates":[-73.94398,40.79252]}},{"type":"Feature","properties":{"name":"NY 895","class":1},"geometry":{"type":"Point","coordinates":[-73.8893,40.82116]}},{"type":"Feature","properties":{"name":"Northern State Parkway","class":1},"geometry":{"type":"Point","coordinates":[-73.70787,40.7593]}},{"type":"Feature","properties":{"name":"East 233rd Street","class":3},"geometry":{"type":"Point","coordinates":[-73.87437,40.89597]}},{"type":"Feature","properties":{"name":"Flushing Avenue","class":3},"geometry":{"type":"Point","coordinates":[-73.93027,40.70412]}},{"type":"Feature","properties":{"name":"Hillside Avenue","class":3},"geometry":{"type":"Point","coordinates":[-73.78573,40.71225]}}]}