{
  "type": "FeatureCollection",
  "name": "chelsea_neighborhood_approx",
  "crs": { "type": "name", "properties": { "name": "urn:ogc:def:crs:OGC:1.3:CRS84" } },
  "features": [
    {
      "type": "Feature",
      "properties": {
        "market_area_id": "neighborhood:chelsea",
        "name": "Chelsea",
        "geography_type": "neighborhood",
        "geometry_note": "Approximate Chelsea neighborhood extent for curated RentHop observation display. Not an official NTA boundary.",
        "geometry_quality": "curated_approx"
      },
      "geometry": {
        "type": "Polygon",
        "coordinates": [
          [
            [-74.0085, 40.7390],
            [-73.9910, 40.7390],
            [-73.9910, 40.7525],
            [-74.0085, 40.7525],
            [-74.0085, 40.7390]
          ]
        ]
      }
    }
  ]
}
