{
  "type": "FeatureCollection",
  "name": "fulton_houses_fixture",
  "crs": { "type": "name", "properties": { "name": "urn:ogc:def:crs:OGC:1.3:CRS84" } },
  "features": [
    {
      "type": "Feature",
      "properties": {
        "development_id": "nycha:tds:136",
        "name": "Fulton",
        "tds_id": "136",
        "hud_amp_id": "NY005001360",
        "geometry_note": "Provisional fixture approximating Fulton Houses footprint (9th Ave / W 16–19 St, Chelsea). Replace with official NYCHA polygon in NRS-003.",
        "geometry_quality": "provisional_fixture"
      },
      "geometry": {
        "type": "Polygon",
        "coordinates": [
          [
            [-74.0042, 40.7420],
            [-74.0010, 40.7420],
            [-74.0010, 40.7452],
            [-74.0042, 40.7452],
            [-74.0042, 40.7420]
          ]
        ]
      }
    }
  ]
}
