{ "type": "FeatureCollection", "features": [{"type":"Feature","geometry":{"type":"MultiPolygon","coordinates":[[[[-74.119655075089,40.636571950091],[-74.119595006132,40.636401292024],[-74.11955872332,40.636408701412],[-74.119546456971,40.636373844234],[-74.119537602968,40.636348685709],[-74.119557673418,40.636344588188],[-74.119552569176,40.636330084319],[-74.119549931511,40.636322589332],[-74.11956509453,40.636319492888],[-74.119568231828,40.636318852057],[-74.119567659145,40.636317224513],[-74.119499714455,40.636124152535],[-74.119642345864,40.636095022781],[-74.1196842492,40.636214094544],[-74.119698984551,40.636255965088],[-74.119717119409,40.636252261281],[-74.119761771164,40.636379141263],[-74.119743636274,40.636382845077],[-74.119795428966,40.636530014425],[-74.119799785928,40.636542395636],[-74.119655075089,40.636571950091]]]]},"properties":{"name":null,"base_bbl":"5001960001","shape_area":"1210.75","construction_year":"1962","ground_elevation":"22","mappluto_bbl":"5001960001","objectid":"178518","feature_code":"2100","shape_length":"181.76545878469477","height_roof":"75.51","last_status_type":"Constructed","bin":"5095813","last_edited_date":"2017-08-22T18:39:02.000Z","geom_source":"Photogrammetric","doitt_id":"13273"}},{"type":"Feature","geometry":{"type":"MultiPolygon","coordinates":[[[[-74.119021731927,40.636550778814],[-74.119007183765,40.636472485564],[-74.118990823215,40.636474249505],[-74.118971452001,40.636369999252],[-74.118966848508,40.636345222608],[-74.118983209028,40.636343458671],[-74.118952776157,40.636179677484],[-74.119020950523,40.636172325332],[-74.119100104344,40.636163790191],[-74.119137006655,40.636362389543],[-74.11915184139,40.636360790157],[-74.119152703136,40.636365426041],[-74.119163221988,40.63642203803],[-74.11914838724,40.636423637417],[-74.119162448587,40.636499312443],[-74.119185497516,40.636623353177],[-74.119038168335,40.636639240578],[-74.119021731927,40.636550778814]]]]},"properties":{"name":null,"base_bbl":"5001960001","shape_area":"1178.09765625","construction_year":"1962","ground_elevation":"24","mappluto_bbl":"5001960001","objectid":"837605","feature_code":"2100","shape_length":"176.30926837693579","height_roof":"74.06","last_status_type":"Constructed","bin":"5095814","last_edited_date":"2017-08-22T18:09:11.000Z","geom_source":"Photogrammetric","doitt_id":"731410"}},{"type":"Feature","geometry":{"type":"MultiPolygon","coordinates":[[[[-74.118383929357,40.636575041669],[-74.11837559454,40.636530465511],[-74.118337570387,40.63653459121],[-74.118326024139,40.636472838235],[-74.118347204328,40.636470539923],[-74.118343008289,40.636448095182],[-74.118359852211,40.636446266899],[-74.118322783736,40.636248009671],[-74.118412995122,40.636238220907],[-74.118467610049,40.636232295062],[-74.11849089966,40.636356853489],[-74.118491564399,40.636360409857],[-74.118498191482,40.636395852893],[-74.118515261124,40.636394000942],[-74.118529939094,40.636472503942],[-74.118531097919,40.636478704627],[-74.11853617835,40.636505876179],[-74.118539451929,40.636523383413],[-74.118522382254,40.636525235369],[-74.118536391948,40.636600168494],[-74.118553390023,40.636691078261],[-74.118408563918,40.636706793877],[-74.118396799182,40.636643874962],[-74.118389593316,40.636605333828],[-74.118383929357,40.636575041669]]]]},"properties":{"name":null,"base_bbl":"5001960001","shape_area":"1189.26171875","construction_year":"1962","ground_elevation":"27","mappluto_bbl":"5001960001","objectid":"905149","feature_code":"2100","shape_length":"180.91200861925984","height_roof":"76.5","last_status_type":"Constructed","bin":"5095815","last_edited_date":"2017-08-22T17:53:14.000Z","geom_source":"Photogrammetric","doitt_id":"616529"}},{"type":"Feature","geometry":{"type":"MultiPolygon","coordinates":[[[[-74.117787141079,40.636696873529],[-74.117784657669,40.636592496817],[-74.11776644441,40.636592747807],[-74.117766292472,40.636586362376],[-74.117764009532,40.636490398114],[-74.117763330254,40.636461836121],[-74.117781544658,40.63646158423],[-74.117777620999,40.636296658034],[-74.117924786256,40.636294626914],[-74.117929539132,40.636494452802],[-74.117946474553,40.636494219307],[-74.117946604808,40.636499697036],[-74.117947958414,40.636556605801],[-74.117931022977,40.636556839296],[-74.117931573312,40.636579955077],[-74.117932201531,40.636606339664],[-74.117932366284,40.636613278001],[-74.117933211637,40.63664881615],[-74.117935603401,40.63674936214],[-74.117935797476,40.636757508044],[-74.11789676323,40.636758046961],[-74.117788631201,40.636759540079],[-74.117787141079,40.636696873529]]]]},"properties":{"name":null,"base_bbl":"5001960001","shape_area":"1168.9609375","construction_year":"1962","ground_elevation":"30","mappluto_bbl":"5001960001","objectid":"716322","feature_code":"2100","shape_length":"176.42283374274254","height_roof":"75.87","last_status_type":"Constructed","bin":"5095816","last_edited_date":"2017-08-22T19:28:02.000Z","geom_source":"Photogrammetric","doitt_id":"512117"}},{"type":"Feature","geometry":{"type":"MultiPolygon","coordinates":[[[[-74.119165142298,40.635814701093],[-74.119161741716,40.635796313298],[-74.119118588693,40.635800937155],[-74.11910774704,40.635742210171],[-74.119134520696,40.635739321482],[-74.119129961135,40.635714663666],[-74.119146316782,40.635712907815],[-74.119109516948,40.635513919322],[-74.119212567014,40.635502858602],[-74.119256588482,40.635498133851],[-74.119286520684,40.635659985676],[-74.119305410201,40.635657957918],[-74.119329897293,40.635790366575],[-74.11931100892,40.635792393435],[-74.119313798406,40.63580747515],[-74.119341242175,40.635955869467],[-74.11919416847,40.635971655046],[-74.119178014158,40.635884305148],[-74.119165142298,40.635814701093]]]]},"properties":{"name":null,"base_bbl":"5001960001","shape_area":"1211.7109375","construction_year":"1962","ground_elevation":"29","mappluto_bbl":"5001960001","objectid":"1017281","feature_code":"2100","shape_length":"182.62307649705212","height_roof":"74.78","last_status_type":"Constructed","bin":"5095817","last_edited_date":"2017-08-22T17:39:11.000Z","geom_source":"Photogrammetric","doitt_id":"361996"}},{"type":"Feature","geometry":{"type":"MultiPolygon","coordinates":[[[[-74.117753597703,40.636150117623],[-74.117751634926,40.636139778063],[-74.117728364179,40.636142341358],[-74.117727056462,40.636135453719],[-74.117700182632,40.635993878078],[-74.11767913634,40.635883003294],[-74.117699277455,40.63588078451],[-74.11769085609,40.635836424513],[-74.117663522243,40.63583943591],[-74.117633508282,40.635681320011],[-74.117627364711,40.635648953504],[-74.117644717779,40.635647041957],[-74.117924145408,40.635616258713],[-74.117928468322,40.635639034732],[-74.118074467737,40.6356229511],[-74.118099565529,40.635755165778],[-74.118112546399,40.635823546934],[-74.118130935982,40.635821521684],[-74.118142566183,40.635882786514],[-74.118124175403,40.635884812668],[-74.118138072713,40.635958023267],[-74.11815648159,40.636054997551],[-74.118161845087,40.636083250354],[-74.118110746432,40.636088879773],[-74.118015844686,40.636099334096],[-74.118007457672,40.636055148789],[-74.117992162058,40.635974571556],[-74.117984383615,40.635933597777],[-74.117965997543,40.635935622999],[-74.117942078817,40.635809617071],[-74.117850315254,40.635819725841],[-74.11788376618,40.635995950316],[-74.117900982703,40.636086646537],[-74.117904843864,40.636106984422],[-74.117883883663,40.636109294134],[-74.11788880439,40.636135223161],[-74.117753597703,40.636150117623]]]]},"properties":{"name":null,"base_bbl":"5001960001","shape_area":"3033.25","construction_year":"1962","ground_elevation":"37","mappluto_bbl":"5001960001","objectid":"1083150","feature_code":"2100","shape_length":"344.30451715094722","height_roof":"75","last_status_type":"Constructed","bin":"5095818","last_edited_date":"2017-08-22T19:02:32.000Z","geom_source":"Other (Manual)","doitt_id":"848429"}},{"type":"Feature","geometry":{"type":"MultiPolygon","coordinates":[[[[-74.118792249434,40.635231798545],[-74.118778994432,40.635163141284],[-74.118761337848,40.635165119054],[-74.118749621943,40.635104432504],[-74.118767279693,40.635102454734],[-74.11872902294,40.634904287986],[-74.118874660793,40.634887970474],[-74.118906396607,40.63505236181],[-74.11892214568,40.635050596712],[-74.118926283282,40.635072028411],[-74.11894729467,40.635180870541],[-74.118929951273,40.635182813793],[-74.118961721958,40.635347381575],[-74.118817678603,40.635363520146],[-74.118792249434,40.635231798545]]]]},"properties":{"name":null,"base_bbl":"5001960001","shape_area":"1163.4921875","construction_year":"1962","ground_elevation":"34","mappluto_bbl":"5001960001","objectid":"713194","feature_code":"2100","shape_length":"176.46274380018517","height_roof":"76.68","last_status_type":"Constructed","bin":"5095819","last_edited_date":"2017-08-22T17:29:02.000Z","geom_source":"Photogrammetric","doitt_id":"805905"}},{"type":"Feature","geometry":{"type":"MultiPolygon","coordinates":[[[[-74.11832945459,40.635415583791],[-74.118298425724,40.635250527892],[-74.11827968881,40.635252572438],[-74.11825551217,40.63512396883],[-74.118274250231,40.635121924287],[-74.118243224032,40.634956884576],[-74.118390102622,40.634940859971],[-74.118427514701,40.635139866084],[-74.118444595823,40.635138002424],[-74.118456149706,40.635199463619],[-74.118439068567,40.63520132638],[-74.118453485278,40.635278017822],[-74.118476334168,40.635399558176],[-74.118342591971,40.63541415015],[-74.11832945459,40.635415583791]]]]},"properties":{"name":null,"base_bbl":"5001960001","shape_area":"1180.390625","construction_year":"1962","ground_elevation":"37","mappluto_bbl":"5001960001","objectid":"928604","feature_code":"2100","shape_length":"177.03031086201926","height_roof":"74.62","last_status_type":"Constructed","bin":"5095820","last_edited_date":"2017-08-22T18:24:59.000Z","geom_source":"Photogrammetric","doitt_id":"12603"}},{"type":"Feature","geometry":{"type":"MultiPolygon","coordinates":[[[[-74.119930804949,40.634820789956],[-74.120071408262,40.634805316363],[-74.120138955495,40.635161547367],[-74.119938820052,40.635183571402],[-74.119936790111,40.635172865436],[-74.11988949424,40.634923435591],[-74.119878739592,40.634866720344],[-74.119871272685,40.634827341183],[-74.119930804949,40.634820789956]]]]},"properties":{"name":null,"base_bbl":"5001960001","shape_area":"1188.5","construction_year":"1962","ground_elevation":"26","mappluto_bbl":"5001960001","objectid":"328571","feature_code":"2100","shape_length":"150.611715630269","height_roof":"13.27","last_status_type":"Constructed","bin":"5095821","last_edited_date":"2017-08-22T19:17:32.000Z","geom_source":"Photogrammetric","doitt_id":"54736"}},{"type":"Feature","geometry":{"type":"MultiPolygon","coordinates":[[[[-74.119588305064,40.634840114342],[-74.119659297845,40.634832456303],[-74.119705446484,40.635080734774],[-74.119725329268,40.635187700354],[-74.119522649511,40.63520956422],[-74.11952211359,40.635206676809],[-74.11949905625,40.635082636132],[-74.119456619145,40.634854320054],[-74.119588305064,40.634840114342]]]]},"properties":{"name":null,"base_bbl":"5001960001","shape_area":"1199.30859375","construction_year":"1962","ground_elevation":"30","mappluto_bbl":"5001960001","objectid":"149936","feature_code":"2100","shape_length":"150.83149391233135","height_roof":"13.64","last_status_type":"Constructed","bin":"5095822","last_edited_date":"2017-08-22T18:59:09.000Z","geom_source":"Photogrammetric","doitt_id":"354099"}},{"type":"Feature","geometry":{"type":"MultiPolygon","coordinates":[[[[-74.119958391877,40.634516307949],[-74.120130928364,40.634505083836],[-74.120138511295,40.634572731987],[-74.120150158435,40.634676641635],[-74.120050257694,40.634683140577],[-74.11985346178,40.634695942355],[-74.119751361423,40.63470258381],[-74.119732132371,40.634531026845],[-74.119958391877,40.634516307949]]]]},"properties":{"name":null,"base_bbl":"5001960001","shape_area":"1125.34765625","construction_year":"1962","ground_elevation":"29","mappluto_bbl":"5001960001","objectid":"489366","feature_code":"2100","shape_length":"139.62637019727399","height_roof":"13.59","last_status_type":"Constructed","bin":"5095824","last_edited_date":"2017-08-22T19:33:58.000Z","geom_source":"Photogrammetric","doitt_id":"536185"}},{"type":"Feature","geometry":{"type":"MultiPolygon","coordinates":[[[[-74.118846535633,40.634759028868],[-74.118845058361,40.634747252494],[-74.118781952742,40.634751843716],[-74.118769208089,40.634747380396],[-74.11866448672,40.634710703176],[-74.11872770252,40.634605947059],[-74.118813301481,40.634635926103],[-74.118834217672,40.634634404221],[-74.118828378101,40.634587824552],[-74.118902098249,40.634582460488],[-74.119022548538,40.634573697178],[-74.119023181664,40.634578743037],[-74.119104123226,40.634572854469],[-74.119205336795,40.634565489589],[-74.119391818804,40.63455192158],[-74.119600131671,40.634536763659],[-74.119621953569,40.63471081509],[-74.119425564421,40.634725105172],[-74.119418599445,40.634725612195],[-74.119417580141,40.634717480657],[-74.119279515684,40.634727526084],[-74.119107887377,40.634740014109],[-74.118917589586,40.634753859361],[-74.118846535633,40.634759028868]]]]},"properties":{"name":null,"base_bbl":"5001960001","shape_area":"2443.74609375","construction_year":"1962","ground_elevation":"35","mappluto_bbl":"5001960001","objectid":"873877","feature_code":"2100","shape_length":"260.21664068273242","height_roof":"17.37","last_status_type":"Constructed","bin":"5095825","last_edited_date":"2017-08-22T19:27:07.000Z","geom_source":"Photogrammetric","doitt_id":"197068"}},{"type":"Feature","geometry":{"type":"MultiPolygon","coordinates":[[[[-74.117851535474,40.63486744993],[-74.117819381955,40.634695932916],[-74.118012479259,40.634674924772],[-74.118014668013,40.634674686589],[-74.118015684715,40.634680107577],[-74.11820207147,40.63465982912],[-74.118201054752,40.634654407233],[-74.118352793636,40.634637897701],[-74.118401932989,40.634632551152],[-74.118434204934,40.634804697348],[-74.118249644962,40.634824777988],[-74.118233327371,40.634826553484],[-74.118232736673,40.634823405874],[-74.118046349472,40.63484368528],[-74.118046822022,40.634846202649],[-74.117916535275,40.634860378144],[-74.117851535474,40.63486744993]]]]},"properties":{"name":null,"base_bbl":"5001960001","shape_area":"1642.3203125","construction_year":"1962","ground_elevation":"49","mappluto_bbl":"5001960001","objectid":"914903","feature_code":"2100","shape_length":"184.39025419770564","height_roof":"14.16","last_status_type":"Constructed","bin":"5095826","last_edited_date":"2017-08-22T18:25:14.000Z","geom_source":"Photogrammetric","doitt_id":"189904"}},{"type":"Feature","geometry":{"type":"MultiPolygon","coordinates":[[[[-74.117464486669,40.634773479595],[-74.117665743605,40.634751533461],[-74.11768477254,40.634852809882],[-74.117720068159,40.635040657346],[-74.117752761444,40.635214655663],[-74.117796229052,40.635445994344],[-74.117773310693,40.635448493351],[-74.117594970064,40.635467940705],[-74.117585335651,40.635416666847],[-74.117545051198,40.635202260911],[-74.117509771504,40.635014498929],[-74.117482552357,40.634869631273],[-74.117464486669,40.634773479595]]]]},"properties":{"name":null,"base_bbl":"5001960001","shape_area":"2329.0625","construction_year":"1962","ground_elevation":"45","mappluto_bbl":"5001960001","objectid":"644919","feature_code":"2100","shape_length":"251.07070180516882","height_roof":"17.04","last_status_type":"Constructed","bin":"5095827","last_edited_date":"2017-08-22T19:29:29.000Z","geom_source":"Photogrammetric","doitt_id":"578200"}},{"type":"Feature","geometry":{"type":"MultiPolygon","coordinates":[[[[-74.117878797991,40.635031063581],[-74.118079203745,40.635009368842],[-74.11812835355,40.635272857337],[-74.118141769723,40.635344782492],[-74.118145878594,40.635366809492],[-74.117950790098,40.635387928861],[-74.117945471789,40.635388504346],[-74.117923893127,40.635272822268],[-74.117878797991,40.635031063581]]]]},"properties":{"name":null,"base_bbl":"5001960001","shape_area":"1193.36328125","construction_year":"1962","ground_elevation":"44","mappluto_bbl":"5001960001","objectid":"337630","feature_code":"2100","shape_length":"150.98193395337412","height_roof":"12.96","last_status_type":"Constructed","bin":"5095828","last_edited_date":"2017-08-22T17:35:13.000Z","geom_source":"Photogrammetric","doitt_id":"461405"}},{"type":"Feature","geometry":{"type":"MultiPolygon","coordinates":[[[[-74.119131959032,40.634871870332],[-74.119266029199,40.634856961014],[-74.11930388572,40.635054523753],[-74.119334183514,40.635212642538],[-74.119132778778,40.635235040203],[-74.119124751023,40.635193144622],[-74.119071396791,40.634914703263],[-74.119064624332,40.634879358562],[-74.119131959032,40.634871870332]]]]},"properties":{"name":null,"base_bbl":"5001960001","shape_area":"1194.7109375","construction_year":"1962","ground_elevation":"32","mappluto_bbl":"5001960001","objectid":"1073022","feature_code":"2100","shape_length":"150.76716190453266","height_roof":"15","last_status_type":"Constructed","bin":"5136037","last_edited_date":"2017-08-22T18:47:49.000Z","geom_source":"Other (Manual)","doitt_id":"498978"}}], "crs" : { "type": "name", "properties": { "name": "urn:ogc:def:crs:OGC:1.3:CRS84" } } }